ONEWEB-0403             
1 50483U 21132Q   25047.81072557 -.00000345  00000+0 -90686-3 0  9997
2 50483  87.9045  71.9845 0001806  89.5183 270.6156 13.18685072157627
ONEWEB-0405             
1 50485U 21132S   25047.82655012  .00000010  00000+0 -69005-5 0  9994
2 50485  87.9048  71.9711 0001765 103.7401 256.3927 13.18687248158029
ONEWEB-0406             
1 50486U 21132T   25047.96721976 -.00000001  00000+0 -34470-4 0  9991
2 50486  87.9049  71.9601 0001737  73.5928 286.5395 13.18686775157674
ONEWEB-0407             
1 50487U 21132U   25047.80916008  .00000033  00000+0  50922-4 0  9990
2 50487  87.9045  71.9822 0001770  97.8908 262.2425 13.18687049157591
ONEWEB-0412             
1 50489U 21132W   25047.79809714  .00000020  00000+0  18485-4 0  9999
2 50489  87.9049  71.9958 0001871 107.2301 252.9036 13.18686234157681
ONEWEB-0413             
1 50490U 21132X   25047.80283831  .00000029  00000+0  41795-4 0  9998
2 50490  87.9046  72.0068 0001972 104.4067 255.7284 13.18686738157623
